[{"OBJECT_NAME":"TIANMU-1 10","OBJECT_ID":"2023-101D","EPOCH":"2026-03-09T23:06:46.939392","MEAN_MOTION":15.2921896,"ECCENTRICITY":0.00069292,"INCLINATION":97.2749,"RA_OF_ASC_NODE":122.1027,"ARG_OF_PERICENTER":133.6162,"MEAN_ANOMALY":226.5654,"EPHEMERIS_TYPE":0,"CLASSIFICATION_TYPE":"U","NORAD_CAT_ID":57402,"ELEMENT_SET_NO":999,"REV_AT_EPOCH":14647,"BSTAR":0.00032238884,"MEAN_MOTION_DOT":9.075e-5,"MEAN_MOTION_DDOT":0},{"OBJECT_NAME":"STARLINK-31959","OBJECT_ID":"2024-106D","EPOCH":"2026-03-09T09:51:39.794400","MEAN_MOTION":15.27564146,"ECCENTRICITY":5.563e-5,"INCLINATION":43.0019,"RA_OF_ASC_NODE":330.2606,"ARG_OF_PERICENTER":12.705,"MEAN_ANOMALY":347.3816,"EPHEMERIS_TYPE":0,"CLASSIFICATION_TYPE":"U","NORAD_CAT_ID":59925,"ELEMENT_SET_NO":999,"REV_AT_EPOCH":10052,"BSTAR":-4.0088203e-5,"MEAN_MOTION_DOT":-1.364e-5,"MEAN_MOTION_DDOT":0}]
